0 DELTA 1 DEB
1 10760U 76077BH  13281.64115744  .00000656  00000-0  37221-2 0  9363
2 10760 101.4826 312.5573 0554245 183.1894 303.0828 12.27027017655934
0 DELTA 1 DEB
1 10760U 76077BH  13284.07330666  .00000779  00000-0  43749-2 0  9374
2 10760 101.4819 314.8102 0554244 178.6997 246.5769 12.27031139656230
0 DELTA 1 DEB
1 10760U 76077BH  13287.67415285  .00000938  00000-0  52284-2 0  9386
2 10760 101.4798 318.1458 0554091 172.0864 312.5807 12.27038863656674
0 DELTA 1 DEB
1 10760U 76077BH  13289.71276542  .00000914  00000-0  50994-2 0  9395
2 10760 101.4787 320.0339 0553749 168.3767 317.7413 12.27043837656926
0 DELTA 1 DEB
1 10760U 76077BH  13290.58143538 -.00000011  00000-0  10000-3 0  9406
2 10760 101.4733 320.8412 0554381 166.5636 195.1424 12.27036871657038
0 DELTA 1 DEB
1 10760U 76077BH  13292.57289971  .00000981  00000-0  54586-2 0  9400
2 10760 101.4785 322.6817 0553334 163.1200 351.9137 12.27049260657276
0 DELTA 1 DEB
1 10760U 76077BH  13293.70632435  .00000954  00000-0  53173-2 0  9415
2 10760 101.4778 323.7314 0552933 161.0476 318.6328 12.27051305657419
0 DELTA 1 DEB
1 10760U 76077BH  13295.08030944  .00000950  00000-0  53006-2 0  9427
2 10760 101.4777 325.0035 0552652 158.5274 268.0114 12.27053837657589
